{
  "name": "SATGUS",
  "line1": "1 62713U 25009DJ  26102.19083162  .00004232  00000+0  34103-3 0  9990",
  "line2": "2 62713  97.7112 184.1623 0004024 334.1702  25.9320 15.00450986 67667",
  "fetched_at": "2026-04-13T00:32:33.735204+00:00"
}